{"type":"FeatureCollection","properties":{"provenance":"approximate","note":"Approximate bounding polygons. They over-cover: a warning near a boundary may fall outside the real unit. Always confirm land status on the ground."},"features":[{"type":"Feature","properties":{"name":"Great Smoky Mountains National Park","status":"national_park","rule":"PROHIBITED","message":"Harvesting ginseng in a National Park is a federal offence. Do not dig here.","provenance":"approximate"},"geometry":{"type":"Polygon","coordinates":[[[-84.0,35.43],[-83.07,35.43],[-83.07,35.8],[-84.0,35.8],[-84.0,35.43]]]}},{"type":"Feature","properties":{"name":"Shenandoah National Park","status":"national_park","rule":"PROHIBITED","message":"Harvesting ginseng in a National Park is a federal offence. Do not dig here.","provenance":"approximate"},"geometry":{"type":"Polygon","coordinates":[[[-78.9,38.03],[-78.15,38.03],[-78.15,38.95],[-78.9,38.95],[-78.9,38.03]]]}},{"type":"Feature","properties":{"name":"New River Gorge National Park","status":"national_park","rule":"PROHIBITED","message":"Harvesting ginseng in a National Park is a federal offence. Do not dig here.","provenance":"approximate"},"geometry":{"type":"Polygon","coordinates":[[[-81.25,37.75],[-80.85,37.75],[-80.85,38.2],[-81.25,38.2],[-81.25,37.75]]]}},{"type":"Feature","properties":{"name":"Mammoth Cave National Park","status":"national_park","rule":"PROHIBITED","message":"Harvesting ginseng in a National Park is a federal offence. Do not dig here.","provenance":"approximate"},"geometry":{"type":"Polygon","coordinates":[[[-86.3,37.1],[-86.0,37.1],[-86.0,37.3],[-86.3,37.3],[-86.3,37.1]]]}},{"type":"Feature","properties":{"name":"Cuyahoga Valley National Park","status":"national_park","rule":"PROHIBITED","message":"Harvesting ginseng in a National Park is a federal offence. Do not dig here.","provenance":"approximate"},"geometry":{"type":"Polygon","coordinates":[[[-81.65,41.13],[-81.48,41.13],[-81.48,41.38],[-81.65,41.38],[-81.65,41.13]]]}},{"type":"Feature","properties":{"name":"Monongahela National Forest","status":"national_forest","rule":"PERMIT REQUIRED","message":"National forests may allow harvest only with a permit issued by that forest, in limited numbers. Dig only with a valid permit.","provenance":"approximate"},"geometry":{"type":"Polygon","coordinates":[[[-80.35,38.0],[-79.05,38.0],[-79.05,39.45],[-80.35,39.45],[-80.35,38.0]]]}},{"type":"Feature","properties":{"name":"George Washington & Jefferson National Forests","status":"national_forest","rule":"PERMIT REQUIRED","message":"National forests may allow harvest only with a permit issued by that forest, in limited numbers. Dig only with a valid permit.","provenance":"approximate"},"geometry":{"type":"Polygon","coordinates":[[[-81.6,36.6],[-78.3,36.6],[-78.3,39.2],[-81.6,39.2],[-81.6,36.6]]]}},{"type":"Feature","properties":{"name":"Pisgah National Forest","status":"national_forest","rule":"PERMIT REQUIRED","message":"National forests may allow harvest only with a permit issued by that forest, in limited numbers. Dig only with a valid permit.","provenance":"approximate"},"geometry":{"type":"Polygon","coordinates":[[[-82.9,35.2],[-81.5,35.2],[-81.5,36.15],[-82.9,36.15],[-82.9,35.2]]]}},{"type":"Feature","properties":{"name":"Nantahala National Forest","status":"national_forest","rule":"PERMIT REQUIRED","message":"National forests may allow harvest only with a permit issued by that forest, in limited numbers. Dig only with a valid permit.","provenance":"approximate"},"geometry":{"type":"Polygon","coordinates":[[[-84.1,34.9],[-82.9,34.9],[-82.9,35.6],[-84.1,35.6],[-84.1,34.9]]]}},{"type":"Feature","properties":{"name":"Cherokee National Forest","status":"national_forest","rule":"PERMIT REQUIRED","message":"National forests may allow harvest only with a permit issued by that forest, in limited numbers. Dig only with a valid permit.","provenance":"approximate"},"geometry":{"type":"Polygon","coordinates":[[[-84.4,35.0],[-81.9,35.0],[-81.9,36.6],[-84.4,36.6],[-84.4,35.0]]]}},{"type":"Feature","properties":{"name":"Daniel Boone National Forest","status":"national_forest","rule":"PERMIT REQUIRED","message":"National forests may allow harvest only with a permit issued by that forest, in limited numbers. Dig only with a valid permit.","provenance":"approximate"},"geometry":{"type":"Polygon","coordinates":[[[-84.6,36.6],[-83.3,36.6],[-83.3,38.3],[-84.6,38.3],[-84.6,36.6]]]}},{"type":"Feature","properties":{"name":"Wayne National Forest","status":"national_forest","rule":"PERMIT REQUIRED","message":"National forests may allow harvest only with a permit issued by that forest, in limited numbers. Dig only with a valid permit.","provenance":"approximate"},"geometry":{"type":"Polygon","coordinates":[[[-82.8,38.5],[-81.5,38.5],[-81.5,39.7],[-82.8,39.7],[-82.8,38.5]]]}},{"type":"Feature","properties":{"name":"Hoosier National Forest","status":"national_forest","rule":"PERMIT REQUIRED","message":"National forests may allow harvest only with a permit issued by that forest, in limited numbers. Dig only with a valid permit.","provenance":"approximate"},"geometry":{"type":"Polygon","coordinates":[[[-86.8,38.1],[-86.1,38.1],[-86.1,39.2],[-86.8,39.2],[-86.8,38.1]]]}},{"type":"Feature","properties":{"name":"Shawnee National Forest","status":"national_forest","rule":"PERMIT REQUIRED","message":"National forests may allow harvest only with a permit issued by that forest, in limited numbers. Dig only with a valid permit.","provenance":"approximate"},"geometry":{"type":"Polygon","coordinates":[[[-89.5,37.75],[-88.1,37.75],[-88.1,37.905],[-89.5,37.905],[-89.5,37.75]]]}},{"type":"Feature","properties":{"name":"Mark Twain National Forest","status":"national_forest","rule":"PERMIT REQUIRED","message":"National forests may allow harvest only with a permit issued by that forest, in limited numbers. Dig only with a valid permit.","provenance":"approximate"},"geometry":{"type":"Polygon","coordinates":[[[-93.0,36.5],[-90.5,36.5],[-90.5,38.3],[-93.0,38.3],[-93.0,36.5]]]}},{"type":"Feature","properties":{"name":"Allegheny National Forest","status":"national_forest","rule":"PERMIT REQUIRED","message":"National forests may allow harvest only with a permit issued by that forest, in limited numbers. Dig only with a valid permit.","provenance":"approximate"},"geometry":{"type":"Polygon","coordinates":[[[-79.4,41.35],[-78.65,41.35],[-78.65,42.0],[-79.4,42.0],[-79.4,41.35]]]}},{"type":"Feature","properties":{"name":"Chattahoochee-Oconee National Forest","status":"national_forest","rule":"PERMIT REQUIRED","message":"National forests may allow harvest only with a permit issued by that forest, in limited numbers. Dig only with a valid permit.","provenance":"approximate"},"geometry":{"type":"Polygon","coordinates":[[[-84.7,34.4],[-83.1,34.4],[-83.1,35.0],[-84.7,35.0],[-84.7,34.4]]]}},{"type":"Feature","properties":{"name":"Ozark-St. Francis National Forest","status":"national_forest","rule":"PERMIT REQUIRED","message":"National forests may allow harvest only with a permit issued by that forest, in limited numbers. Dig only with a valid permit.","provenance":"approximate"},"geometry":{"type":"Polygon","coordinates":[[[-94.2,35.35],[-92.1,35.35],[-92.1,36.2],[-94.2,36.2],[-94.2,35.35]]]}},{"type":"Feature","properties":{"name":"Green Mountain National Forest","status":"national_forest","rule":"PERMIT REQUIRED","message":"National forests may allow harvest only with a permit issued by that forest, in limited numbers. Dig only with a valid permit.","provenance":"approximate"},"geometry":{"type":"Polygon","coordinates":[[[-73.3,42.75],[-72.7,42.75],[-72.7,44.3],[-73.3,44.3],[-73.3,42.75]]]}},{"type":"Feature","properties":{"name":"Finger Lakes National Forest","status":"national_forest","rule":"PERMIT REQUIRED","message":"National forests may allow harvest only with a permit issued by that forest, in limited numbers. Dig only with a valid permit.","provenance":"approximate"},"geometry":{"type":"Polygon","coordinates":[[[-76.85,42.45],[-76.7,42.45],[-76.7,42.62],[-76.85,42.62],[-76.85,42.45]]]}},{"type":"Feature","properties":{"name":"Chequamegon-Nicolet National Forest","status":"national_forest","rule":"PERMIT REQUIRED","message":"National forests may allow harvest only with a permit issued by that forest, in limited numbers. Dig only with a valid permit.","provenance":"approximate"},"geometry":{"type":"Polygon","coordinates":[[[-91.4,45.3],[-88.3,45.3],[-88.3,46.3],[-91.4,46.3],[-91.4,45.3]]]}}]}