{"type":"FeatureCollection","properties":{"provenance":"verified_reference","source":"US Census/public-domain state outlines (generalised)","note":"Used only for offline state auto-detect by ray casting."},"features":[{"type":"Feature","properties":{"name":"Alabama","code":"AL"},"geometry":{"type":"Polygon","coordinates":[[[-87.359296,35.00118],[-85.606675,34.984749],[-85.431413,34.124869],[-85.184951,32.859696],[-85.069935,32.580372],[-84.960397,32.421541],[-85.004212,32.322956],[-84.889196,32.262709],[-85.058981,32.13674],[-85.053504,32.01077],[-85.141136,31.840985],[-85.042551,31.539753],[-85.113751,31.27686],[-85.004212,31.003013],[-85.497137,30.997536],[-87.600282,30.997536],[-87.633143,30.86609],[-87.408589,30.674397],[-87.446927,30.510088],[-87.37025,30.427934],[-87.518128,30.280057],[-87.655051,30.247195],[-87.90699,30.411504],[-87.934375,30.657966],[-88.011052,30.685351],[-88.10416,30.499135],[-88.137022,30.318396],[-88.394438,30.367688],[-88.471115,31.895754],[-88.241084,33.796253],[-88.098683,34.891641],[-88.202745,34.995703],[-87.359296,35.00118]]]}},{"type":"Feature","properties":{"name":"Arkansas","code":"AR"},"geometry":{"type":"Polygon","coordinates":[[[-94.473842,36.501861],[-90.152536,36.496384],[-90.064905,36.304691],[-90.218259,36.184199],[-90.377091,35.997983],[-89.730812,35.997983],[-89.763673,35.811767],[-89.911551,35.756997],[-89.944412,35.603643],[-90.130628,35.439335],[-90.114197,35.198349],[-90.212782,35.023087],[-90.311367,34.995703],[-90.251121,34.908072],[-90.409952,34.831394],[-90.481152,34.661609],[-90.585214,34.617794],[-90.568783,34.420624],[-90.749522,34.365854],[-90.744046,34.300131],[-90.952169,34.135823],[-90.891923,34.026284],[-91.072662,33.867453],[-91.231493,33.560744],[-91.056231,33.429298],[-91.143862,33.347144],[-91.089093,33.13902],[-91.16577,33.002096],[-93.608485,33.018527],[-94.041164,33.018527],[-94.041164,33.54979],[-94.183564,33.593606],[-94.380734,33.544313],[-94.484796,33.637421],[-94.430026,35.395519],[-94.616242,36.501861],[-94.473842,36.501861]]]}},{"type":"Feature","properties":{"name":"Georgia","code":"GA"},"geometry":{"type":"Polygon","coordinates":[[[-83.109191,35.00118],[-83.322791,34.787579],[-83.339222,34.683517],[-83.005129,34.469916],[-82.901067,34.486347],[-82.747713,34.26727],[-82.714851,34.152254],[-82.55602,33.94413],[-82.325988,33.81816],[-82.194542,33.631944],[-81.926172,33.462159],[-81.937125,33.347144],[-81.761863,33.160928],[-81.493493,33.007573],[-81.42777,32.843265],[-81.416816,32.629664],[-81.279893,32.558464],[-81.121061,32.290094],[-81.115584,32.120309],[-80.885553,32.032678],[-81.132015,31.693108],[-81.175831,31.517845],[-81.279893,31.364491],[-81.290846,31.20566],[-81.400385,31.13446],[-81.444201,30.707258],[-81.718048,30.745597],[-81.948079,30.827751],[-82.041187,30.751074],[-82.002849,30.564858],[-82.046664,30.362211],[-82.167157,30.356734],[-82.216449,30.570335],[-83.498053,30.647012],[-84.867289,30.712735],[-85.004212,31.003013],[-85.113751,31.27686],[-85.042551,31.539753],[-85.141136,31.840985],[-85.053504,32.01077],[-85.058981,32.13674],[-84.889196,32.262709],[-85.004212,32.322956],[-84.960397,32.421541],[-85.069935,32.580372],[-85.184951,32.859696],[-85.431413,34.124869],[-85.606675,34.984749],[-84.319594,34.990226],[-83.618546,34.984749],[-83.109191,35.00118]]]}},{"type":"Feature","properties":{"name":"Illinois","code":"IL"},"geometry":{"type":"Polygon","coordinates":[[[-90.639984,42.510065],[-88.788778,42.493634],[-87.802929,42.493634],[-87.83579,42.301941],[-87.682436,42.077386],[-87.523605,41.710431],[-87.529082,39.34987],[-87.63862,39.169131],[-87.512651,38.95553],[-87.49622,38.780268],[-87.62219,38.637868],[-87.655051,38.506421],[-87.83579,38.292821],[-87.950806,38.27639],[-87.923421,38.15042],[-88.000098,38.101128],[-88.060345,37.865619],[-88.027483,37.799896],[-88.15893,37.657496],[-88.065822,37.482234],[-88.476592,37.389126],[-88.514931,37.285064],[-88.421823,37.153617],[-88.547792,37.071463],[-88.914747,37.224817],[-89.029763,37.213863],[-89.183118,37.038601],[-89.133825,36.983832],[-89.292656,36.994786],[-89.517211,37.279587],[-89.435057,37.34531],[-89.517211,37.537003],[-89.517211,37.690357],[-89.84035,37.903958],[-89.949889,37.88205],[-90.059428,38.013497],[-90.355183,38.216144],[-90.349706,38.374975],[-90.179921,38.632391],[-90.207305,38.725499],[-90.10872,38.845992],[-90.251121,38.917192],[-90.470199,38.961007],[-90.585214,38.867899],[-90.661891,38.928146],[-90.727615,39.256762],[-91.061708,39.470363],[-91.368417,39.727779],[-91.494386,40.034488],[-91.50534,40.237135],[-91.417709,40.379535],[-91.401278,40.560274],[-91.121954,40.669813],[-91.09457,40.823167],[-90.963123,40.921752],[-90.946692,41.097014],[-91.111001,41.239415],[-91.045277,41.414677],[-90.656414,41.463969],[-90.344229,41.589939],[-90.311367,41.743293],[-90.179921,41.809016],[-90.141582,42.000709],[-90.168967,42.126679],[-90.393521,42.225264],[-90.420906,42.329326],[-90.639984,42.510065]]]}},{"type":"Feature","properties":{"name":"Indiana","code":"IN"},"geometry":{"type":"Polygon","coordinates":[[[-85.990061,41.759724],[-84.807042,41.759724],[-84.807042,41.694001],[-84.801565,40.500028],[-84.817996,39.103408],[-84.894673,39.059592],[-84.812519,38.785745],[-84.987781,38.780268],[-85.173997,38.68716],[-85.431413,38.730976],[-85.42046,38.533806],[-85.590245,38.451652],[-85.655968,38.325682],[-85.83123,38.27639],[-85.924338,38.024451],[-86.039354,37.958727],[-86.263908,38.051835],[-86.302247,38.166851],[-86.521325,38.040881],[-86.504894,37.931343],[-86.729448,37.893004],[-86.795172,37.991589],[-87.047111,37.893004],[-87.129265,37.788942],[-87.381204,37.93682],[-87.512651,37.903958],[-87.600282,37.975158],[-87.682436,37.903958],[-87.934375,37.893004],[-88.027483,37.799896],[-88.060345,37.865619],[-88.000098,38.101128],[-87.923421,38.15042],[-87.950806,38.27639],[-87.83579,38.292821],[-87.655051,38.506421],[-87.62219,38.637868],[-87.49622,38.780268],[-87.512651,38.95553],[-87.63862,39.169131],[-87.529082,39.34987],[-87.523605,41.710431],[-87.42502,41.644708],[-87.118311,41.644708],[-86.822556,41.759724],[-85.990061,41.759724]]]}},{"type":"Feature","properties":{"name":"Iowa","code":"IA"},"geometry":{"type":"Polygon","coordinates":[[[-91.368417,43.501391],[-91.215062,43.501391],[-91.204109,43.353514],[-91.056231,43.254929],[-91.176724,43.134436],[-91.143862,42.909881],[-91.067185,42.75105],[-90.711184,42.636034],[-90.639984,42.510065],[-90.420906,42.329326],[-90.393521,42.225264],[-90.168967,42.126679],[-90.141582,42.000709],[-90.179921,41.809016],[-90.311367,41.743293],[-90.344229,41.589939],[-90.656414,41.463969],[-91.045277,41.414677],[-91.111001,41.239415],[-90.946692,41.097014],[-90.963123,40.921752],[-91.09457,40.823167],[-91.121954,40.669813],[-91.401278,40.560274],[-91.417709,40.379535],[-91.527248,40.412397],[-91.729895,40.615043],[-91.833957,40.609566],[-93.257961,40.582182],[-94.632673,40.571228],[-95.7664,40.587659],[-95.881416,40.719105],[-95.826646,40.976521],[-95.925231,41.201076],[-95.919754,41.453015],[-96.095016,41.540646],[-96.122401,41.67757],[-96.062155,41.798063],[-96.127878,41.973325],[-96.264801,42.039048],[-96.44554,42.488157],[-96.631756,42.707235],[-96.544125,42.855112],[-96.511264,43.052282],[-96.434587,43.123482],[-96.560556,43.222067],[-96.527695,43.397329],[-96.582464,43.479483],[-96.451017,43.501391],[-91.368417,43.501391]]]}},{"type":"Feature","properties":{"name":"Kentucky","code":"KY"},"geometry":{"type":"Polygon","coordinates":[[[-83.903347,38.769315],[-83.678792,38.632391],[-83.519961,38.703591],[-83.142052,38.626914],[-83.032514,38.725499],[-82.890113,38.758361],[-82.846298,38.588575],[-82.731282,38.561191],[-82.594358,38.424267],[-82.621743,38.123036],[-82.50125,37.931343],[-82.342419,37.783465],[-82.293127,37.668449],[-82.101434,37.553434],[-81.969987,37.537003],[-82.353373,37.268633],[-82.720328,37.120755],[-82.720328,37.044078],[-82.868205,36.978355],[-82.879159,36.890724],[-83.070852,36.852385],[-83.136575,36.742847],[-83.673316,36.600446],[-83.689746,36.584015],[-84.544149,36.594969],[-85.289013,36.627831],[-85.486183,36.616877],[-86.592525,36.655216],[-87.852221,36.633308],[-88.071299,36.677123],[-88.054868,36.496384],[-89.298133,36.507338],[-89.418626,36.496384],[-89.363857,36.622354],[-89.215979,36.578538],[-89.133825,36.983832],[-89.183118,37.038601],[-89.029763,37.213863],[-88.914747,37.224817],[-88.547792,37.071463],[-88.421823,37.153617],[-88.514931,37.285064],[-88.476592,37.389126],[-88.065822,37.482234],[-88.15893,37.657496],[-88.027483,37.799896],[-87.934375,37.893004],[-87.682436,37.903958],[-87.600282,37.975158],[-87.512651,37.903958],[-87.381204,37.93682],[-87.129265,37.788942],[-87.047111,37.893004],[-86.795172,37.991589],[-86.729448,37.893004],[-86.504894,37.931343],[-86.521325,38.040881],[-86.302247,38.166851],[-86.263908,38.051835],[-86.039354,37.958727],[-85.924338,38.024451],[-85.83123,38.27639],[-85.655968,38.325682],[-85.590245,38.451652],[-85.42046,38.533806],[-85.431413,38.730976],[-85.173997,38.68716],[-84.987781,38.780268],[-84.812519,38.785745],[-84.894673,39.059592],[-84.817996,39.103408],[-84.43461,39.103408],[-84.231963,38.895284],[-84.215533,38.807653],[-83.903347,38.769315]]]}},{"type":"Feature","properties":{"name":"Maryland","code":"MD"},"geometry":{"type":"MultiPolygon","coordinates":[[[[-75.994645,37.95325],[-76.016553,37.95325],[-76.043938,37.95325],[-75.994645,37.95325]]],[[[-79.477979,39.722302],[-75.786521,39.722302],[-75.693413,38.462606],[-75.047134,38.451652],[-75.244304,38.029928],[-75.397659,38.013497],[-75.671506,37.95325],[-75.885106,37.909435],[-75.879629,38.073743],[-75.961783,38.139466],[-75.846768,38.210667],[-76.000122,38.374975],[-76.049415,38.303775],[-76.257538,38.320205],[-76.328738,38.500944],[-76.263015,38.500944],[-76.257538,38.736453],[-76.191815,38.829561],[-76.279446,39.147223],[-76.169907,39.333439],[-76.000122,39.366301],[-75.972737,39.557994],[-76.098707,39.536086],[-76.104184,39.437501],[-76.367077,39.311532],[-76.443754,39.196516],[-76.460185,38.906238],[-76.55877,38.769315],[-76.514954,38.539283],[-76.383508,38.380452],[-76.399939,38.259959],[-76.317785,38.139466],[-76.3616,38.057312],[-76.591632,38.216144],[-76.920248,38.292821],[-77.018833,38.446175],[-77.205049,38.358544],[-77.276249,38.479037],[-77.128372,38.632391],[-77.040741,38.791222],[-76.909294,38.895284],[-77.035264,38.993869],[-77.117418,38.933623],[-77.248864,39.026731],[-77.456988,39.076023],[-77.456988,39.223901],[-77.566527,39.306055],[-77.719881,39.322485],[-77.834897,39.601809],[-78.004682,39.601809],[-78.174467,39.694917],[-78.267575,39.61824],[-78.431884,39.623717],[-78.470222,39.514178],[-78.765977,39.585379],[-78.963147,39.437501],[-79.094593,39.470363],[-79.291763,39.300578],[-79.488933,39.20747],[-79.477979,39.722302]]]]}},{"type":"Feature","properties":{"name":"Minnesota","code":"MN"},"geometry":{"type":"Polygon","coordinates":[[[-92.014696,46.705401],[-92.091373,46.749217],[-92.29402,46.667063],[-92.29402,46.075553],[-92.354266,46.015307],[-92.639067,45.933153],[-92.869098,45.719552],[-92.885529,45.577151],[-92.770513,45.566198],[-92.644544,45.440228],[-92.75956,45.286874],[-92.737652,45.117088],[-92.808852,44.750133],[-92.545959,44.569394],[-92.337835,44.552964],[-92.233773,44.443425],[-91.927065,44.333886],[-91.877772,44.202439],[-91.592971,44.032654],[-91.43414,43.994316],[-91.242447,43.775238],[-91.269832,43.616407],[-91.215062,43.501391],[-91.368417,43.501391],[-96.451017,43.501391],[-96.451017,45.297827],[-96.681049,45.412843],[-96.856311,45.604536],[-96.582464,45.818137],[-96.560556,45.933153],[-96.598895,46.332969],[-96.719387,46.437031],[-96.801542,46.656109],[-96.785111,46.924479],[-96.823449,46.968294],[-96.856311,47.609096],[-97.053481,47.948667],[-97.130158,48.140359],[-97.16302,48.545653],[-97.097296,48.682577],[-97.228743,49.000239],[-95.152983,49.000239],[-95.152983,49.383625],[-94.955813,49.372671],[-94.824366,49.295994],[-94.69292,48.775685],[-94.588858,48.715438],[-94.260241,48.699007],[-94.221903,48.649715],[-93.838517,48.627807],[-93.794701,48.518268],[-93.466085,48.545653],[-93.466085,48.589469],[-93.208669,48.644238],[-92.984114,48.62233],[-92.726698,48.540176],[-92.655498,48.436114],[-92.50762,48.447068],[-92.370697,48.222514],[-92.304974,48.315622],[-92.053034,48.359437],[-92.009219,48.266329],[-91.713464,48.200606],[-91.713464,48.112975],[-91.565587,48.041775],[-91.264355,48.080113],[-91.083616,48.178698],[-90.837154,48.238944],[-90.749522,48.091067],[-90.579737,48.123929],[-90.377091,48.091067],[-90.141582,48.112975],[-89.873212,47.987005],[-89.615796,48.008913],[-89.637704,47.954144],[-89.971797,47.828174],[-90.437337,47.729589],[-90.738569,47.625527],[-91.171247,47.368111],[-91.357463,47.20928],[-91.642264,47.028541],[-92.091373,46.787555],[-92.014696,46.705401]]]}},{"type":"Feature","properties":{"name":"Missouri","code":"MO"},"geometry":{"type":"Polygon","coordinates":[[[-91.833957,40.609566],[-91.729895,40.615043],[-91.527248,40.412397],[-91.417709,40.379535],[-91.50534,40.237135],[-91.494386,40.034488],[-91.368417,39.727779],[-91.061708,39.470363],[-90.727615,39.256762],[-90.661891,38.928146],[-90.585214,38.867899],[-90.470199,38.961007],[-90.251121,38.917192],[-90.10872,38.845992],[-90.207305,38.725499],[-90.179921,38.632391],[-90.349706,38.374975],[-90.355183,38.216144],[-90.059428,38.013497],[-89.949889,37.88205],[-89.84035,37.903958],[-89.517211,37.690357],[-89.517211,37.537003],[-89.435057,37.34531],[-89.517211,37.279587],[-89.292656,36.994786],[-89.133825,36.983832],[-89.215979,36.578538],[-89.363857,36.622354],[-89.418626,36.496384],[-89.484349,36.496384],[-89.539119,36.496384],[-89.533642,36.249922],[-89.730812,35.997983],[-90.377091,35.997983],[-90.218259,36.184199],[-90.064905,36.304691],[-90.152536,36.496384],[-94.473842,36.501861],[-94.616242,36.501861],[-94.616242,37.000263],[-94.610765,39.158177],[-94.824366,39.20747],[-94.983197,39.442978],[-95.109167,39.541563],[-94.884612,39.831841],[-95.207752,39.908518],[-95.306337,40.001626],[-95.552799,40.264519],[-95.7664,40.587659],[-94.632673,40.571228],[-93.257961,40.582182],[-91.833957,40.609566]]]}},{"type":"Feature","properties":{"name":"New York","code":"NY"},"geometry":{"type":"Polygon","coordinates":[[[-73.343806,45.013027],[-73.332852,44.804903],[-73.387622,44.618687],[-73.294514,44.437948],[-73.321898,44.246255],[-73.436914,44.043608],[-73.349283,43.769761],[-73.404052,43.687607],[-73.245221,43.523299],[-73.278083,42.833204],[-73.267129,42.745573],[-73.508114,42.08834],[-73.486206,42.050002],[-73.55193,41.294184],[-73.48073,41.21203],[-73.727192,41.102491],[-73.655992,40.987475],[-73.22879,40.905321],[-73.141159,40.965568],[-72.774204,40.965568],[-72.587988,40.998429],[-72.28128,41.157261],[-72.259372,41.042245],[-72.100541,40.992952],[-72.467496,40.845075],[-73.239744,40.625997],[-73.562884,40.582182],[-73.776484,40.593136],[-73.935316,40.543843],[-74.022947,40.708151],[-73.902454,40.998429],[-74.236547,41.14083],[-74.69661,41.359907],[-74.740426,41.431108],[-74.89378,41.436584],[-75.074519,41.60637],[-75.052611,41.754247],[-75.173104,41.869263],[-75.249781,41.863786],[-75.35932,42.000709],[-79.76278,42.000709],[-79.76278,42.252649],[-79.76278,42.269079],[-79.149363,42.55388],[-79.050778,42.690804],[-78.853608,42.783912],[-78.930285,42.953697],[-79.012439,42.986559],[-79.072686,43.260406],[-78.486653,43.375421],[-77.966344,43.369944],[-77.75822,43.34256],[-77.533665,43.233021],[-77.391265,43.276836],[-76.958587,43.271359],[-76.695693,43.34256],[-76.41637,43.523299],[-76.235631,43.528776],[-76.230154,43.802623],[-76.137046,43.961454],[-76.3616,44.070993],[-76.312308,44.196962],[-75.912491,44.366748],[-75.764614,44.514625],[-75.282643,44.848718],[-74.828057,45.018503],[-74.148916,44.991119],[-73.343806,45.013027]]]}},{"type":"Feature","properties":{"name":"North Carolina","code":"NC"},"geometry":{"type":"Polygon","coordinates":[[[-80.978661,36.562108],[-80.294043,36.545677],[-79.510841,36.5402],[-75.868676,36.551154],[-75.75366,36.151337],[-76.032984,36.189676],[-76.071322,36.140383],[-76.410893,36.080137],[-76.460185,36.025367],[-76.68474,36.008937],[-76.673786,35.937736],[-76.399939,35.987029],[-76.3616,35.943213],[-76.060368,35.992506],[-75.961783,35.899398],[-75.781044,35.937736],[-75.715321,35.696751],[-75.775568,35.581735],[-75.89606,35.570781],[-76.147999,35.324319],[-76.482093,35.313365],[-76.536862,35.14358],[-76.394462,34.973795],[-76.279446,34.940933],[-76.493047,34.661609],[-76.673786,34.694471],[-76.991448,34.667086],[-77.210526,34.60684],[-77.555573,34.415147],[-77.82942,34.163208],[-77.971821,33.845545],[-78.179944,33.916745],[-78.541422,33.851022],[-79.675149,34.80401],[-80.797922,34.820441],[-80.781491,34.935456],[-80.934845,35.105241],[-81.038907,35.044995],[-81.044384,35.149057],[-82.276696,35.198349],[-82.550543,35.160011],[-82.764143,35.066903],[-83.109191,35.00118],[-83.618546,34.984749],[-84.319594,34.990226],[-84.29221,35.225734],[-84.09504,35.247642],[-84.018363,35.41195],[-83.7719,35.559827],[-83.498053,35.565304],[-83.251591,35.718659],[-82.994175,35.773428],[-82.775097,35.997983],[-82.638174,36.063706],[-82.610789,35.965121],[-82.216449,36.156814],[-82.03571,36.118475],[-81.909741,36.304691],[-81.723525,36.353984],[-81.679709,36.589492],[-80.978661,36.562108]]]}},{"type":"Feature","properties":{"name":"Ohio","code":"OH"},"geometry":{"type":"Polygon","coordinates":[[[-80.518598,41.978802],[-80.518598,40.636951],[-80.666475,40.582182],[-80.595275,40.472643],[-80.600752,40.319289],[-80.737675,40.078303],[-80.830783,39.711348],[-81.219646,39.388209],[-81.345616,39.344393],[-81.455155,39.410117],[-81.57017,39.267716],[-81.685186,39.273193],[-81.811156,39.0815],[-81.783771,38.966484],[-81.887833,38.873376],[-82.03571,39.026731],[-82.221926,38.785745],[-82.172634,38.632391],[-82.293127,38.577622],[-82.331465,38.446175],[-82.594358,38.424267],[-82.731282,38.561191],[-82.846298,38.588575],[-82.890113,38.758361],[-83.032514,38.725499],[-83.142052,38.626914],[-83.519961,38.703591],[-83.678792,38.632391],[-83.903347,38.769315],[-84.215533,38.807653],[-84.231963,38.895284],[-84.43461,39.103408],[-84.817996,39.103408],[-84.801565,40.500028],[-84.807042,41.694001],[-83.454238,41.732339],[-83.065375,41.595416],[-82.933929,41.513262],[-82.835344,41.589939],[-82.616266,41.431108],[-82.479343,41.381815],[-82.013803,41.513262],[-81.739956,41.485877],[-81.444201,41.672093],[-81.011523,41.852832],[-80.518598,41.978802],[-80.518598,41.978802]]]}},{"type":"Feature","properties":{"name":"Pennsylvania","code":"PA"},"geometry":{"type":"Polygon","coordinates":[[[-79.76278,42.252649],[-79.76278,42.000709],[-75.35932,42.000709],[-75.249781,41.863786],[-75.173104,41.869263],[-75.052611,41.754247],[-75.074519,41.60637],[-74.89378,41.436584],[-74.740426,41.431108],[-74.69661,41.359907],[-74.828057,41.288707],[-74.882826,41.179168],[-75.134765,40.971045],[-75.052611,40.866983],[-75.205966,40.691721],[-75.195012,40.576705],[-75.069042,40.543843],[-75.058088,40.417874],[-74.773287,40.215227],[-74.82258,40.127596],[-75.129289,39.963288],[-75.145719,39.88661],[-75.414089,39.804456],[-75.616736,39.831841],[-75.786521,39.722302],[-79.477979,39.722302],[-80.518598,39.722302],[-80.518598,40.636951],[-80.518598,41.978802],[-80.518598,41.978802],[-80.332382,42.033571],[-79.76278,42.269079],[-79.76278,42.252649]]]}},{"type":"Feature","properties":{"name":"Tennessee","code":"TN"},"geometry":{"type":"Polygon","coordinates":[[[-88.054868,36.496384],[-88.071299,36.677123],[-87.852221,36.633308],[-86.592525,36.655216],[-85.486183,36.616877],[-85.289013,36.627831],[-84.544149,36.594969],[-83.689746,36.584015],[-83.673316,36.600446],[-81.679709,36.589492],[-81.723525,36.353984],[-81.909741,36.304691],[-82.03571,36.118475],[-82.216449,36.156814],[-82.610789,35.965121],[-82.638174,36.063706],[-82.775097,35.997983],[-82.994175,35.773428],[-83.251591,35.718659],[-83.498053,35.565304],[-83.7719,35.559827],[-84.018363,35.41195],[-84.09504,35.247642],[-84.29221,35.225734],[-84.319594,34.990226],[-85.606675,34.984749],[-87.359296,35.00118],[-88.202745,34.995703],[-88.471115,34.995703],[-90.311367,34.995703],[-90.212782,35.023087],[-90.114197,35.198349],[-90.130628,35.439335],[-89.944412,35.603643],[-89.911551,35.756997],[-89.763673,35.811767],[-89.730812,35.997983],[-89.533642,36.249922],[-89.539119,36.496384],[-89.484349,36.496384],[-89.418626,36.496384],[-89.298133,36.507338],[-88.054868,36.496384]]]}},{"type":"Feature","properties":{"name":"Vermont","code":"VT"},"geometry":{"type":"Polygon","coordinates":[[[-71.503554,45.013027],[-71.4926,44.914442],[-71.629524,44.750133],[-71.536416,44.585825],[-71.700724,44.41604],[-72.034817,44.322932],[-72.02934,44.07647],[-72.116971,43.994316],[-72.204602,43.769761],[-72.379864,43.572591],[-72.456542,43.150867],[-72.445588,43.008466],[-72.533219,42.953697],[-72.544173,42.80582],[-72.456542,42.729142],[-73.267129,42.745573],[-73.278083,42.833204],[-73.245221,43.523299],[-73.404052,43.687607],[-73.349283,43.769761],[-73.436914,44.043608],[-73.321898,44.246255],[-73.294514,44.437948],[-73.387622,44.618687],[-73.332852,44.804903],[-73.343806,45.013027],[-72.308664,45.002073],[-71.503554,45.013027]]]}},{"type":"Feature","properties":{"name":"Virginia","code":"VA"},"geometry":{"type":"MultiPolygon","coordinates":[[[[-75.397659,38.013497],[-75.244304,38.029928],[-75.375751,37.860142],[-75.512674,37.799896],[-75.594828,37.569865],[-75.802952,37.197433],[-75.972737,37.120755],[-76.027507,37.257679],[-75.939876,37.564388],[-75.671506,37.95325],[-75.397659,38.013497]]],[[[-76.016553,37.95325],[-75.994645,37.95325],[-76.043938,37.95325],[-76.016553,37.95325]]],[[[-78.349729,39.464886],[-77.82942,39.130793],[-77.719881,39.322485],[-77.566527,39.306055],[-77.456988,39.223901],[-77.456988,39.076023],[-77.248864,39.026731],[-77.117418,38.933623],[-77.040741,38.791222],[-77.128372,38.632391],[-77.248864,38.588575],[-77.325542,38.446175],[-77.281726,38.342113],[-77.013356,38.374975],[-76.964064,38.216144],[-76.613539,38.15042],[-76.514954,38.024451],[-76.235631,37.887527],[-76.3616,37.608203],[-76.246584,37.389126],[-76.383508,37.285064],[-76.399939,37.159094],[-76.273969,37.082417],[-76.410893,36.961924],[-76.619016,37.120755],[-76.668309,37.065986],[-76.48757,36.95097],[-75.994645,36.923586],[-75.868676,36.551154],[-79.510841,36.5402],[-80.294043,36.545677],[-80.978661,36.562108],[-81.679709,36.589492],[-83.673316,36.600446],[-83.136575,36.742847],[-83.070852,36.852385],[-82.879159,36.890724],[-82.868205,36.978355],[-82.720328,37.044078],[-82.720328,37.120755],[-82.353373,37.268633],[-81.969987,37.537003],[-81.986418,37.454849],[-81.849494,37.285064],[-81.679709,37.20291],[-81.55374,37.208387],[-81.362047,37.339833],[-81.225123,37.235771],[-80.967707,37.290541],[-80.513121,37.482234],[-80.474782,37.421987],[-80.29952,37.509618],[-80.294043,37.690357],[-80.184505,37.849189],[-79.998289,37.997066],[-79.921611,38.177805],[-79.724442,38.364021],[-79.647764,38.594052],[-79.477979,38.457129],[-79.313671,38.413313],[-79.209609,38.495467],[-78.996008,38.851469],[-78.870039,38.763838],[-78.404499,39.169131],[-78.349729,39.464886]]]]}},{"type":"Feature","properties":{"name":"West Virginia","code":"WV"},"geometry":{"type":"Polygon","coordinates":[[[-80.518598,40.636951],[-80.518598,39.722302],[-79.477979,39.722302],[-79.488933,39.20747],[-79.291763,39.300578],[-79.094593,39.470363],[-78.963147,39.437501],[-78.765977,39.585379],[-78.470222,39.514178],[-78.431884,39.623717],[-78.267575,39.61824],[-78.174467,39.694917],[-78.004682,39.601809],[-77.834897,39.601809],[-77.719881,39.322485],[-77.82942,39.130793],[-78.349729,39.464886],[-78.404499,39.169131],[-78.870039,38.763838],[-78.996008,38.851469],[-79.209609,38.495467],[-79.313671,38.413313],[-79.477979,38.457129],[-79.647764,38.594052],[-79.724442,38.364021],[-79.921611,38.177805],[-79.998289,37.997066],[-80.184505,37.849189],[-80.294043,37.690357],[-80.29952,37.509618],[-80.474782,37.421987],[-80.513121,37.482234],[-80.967707,37.290541],[-81.225123,37.235771],[-81.362047,37.339833],[-81.55374,37.208387],[-81.679709,37.20291],[-81.849494,37.285064],[-81.986418,37.454849],[-81.969987,37.537003],[-82.101434,37.553434],[-82.293127,37.668449],[-82.342419,37.783465],[-82.50125,37.931343],[-82.621743,38.123036],[-82.594358,38.424267],[-82.331465,38.446175],[-82.293127,38.577622],[-82.172634,38.632391],[-82.221926,38.785745],[-82.03571,39.026731],[-81.887833,38.873376],[-81.783771,38.966484],[-81.811156,39.0815],[-81.685186,39.273193],[-81.57017,39.267716],[-81.455155,39.410117],[-81.345616,39.344393],[-81.219646,39.388209],[-80.830783,39.711348],[-80.737675,40.078303],[-80.600752,40.319289],[-80.595275,40.472643],[-80.666475,40.582182],[-80.518598,40.636951]]]}},{"type":"Feature","properties":{"name":"Wisconsin","code":"WI"},"geometry":{"type":"Polygon","coordinates":[[[-90.415429,46.568478],[-90.229213,46.508231],[-90.119674,46.338446],[-89.09001,46.135799],[-88.662808,45.987922],[-88.531362,46.020784],[-88.10416,45.922199],[-87.989145,45.796229],[-87.781021,45.675736],[-87.791975,45.500474],[-87.885083,45.363551],[-87.649574,45.341643],[-87.742682,45.199243],[-87.589328,45.095181],[-87.627666,44.974688],[-87.819359,44.95278],[-87.983668,44.722749],[-88.043914,44.563917],[-87.928898,44.536533],[-87.775544,44.640595],[-87.611236,44.837764],[-87.403112,44.914442],[-87.238804,45.166381],[-87.03068,45.22115],[-87.047111,45.089704],[-87.189511,44.969211],[-87.468835,44.552964],[-87.545512,44.322932],[-87.540035,44.158624],[-87.644097,44.103854],[-87.737205,43.8793],[-87.704344,43.687607],[-87.791975,43.561637],[-87.912467,43.249452],[-87.885083,43.002989],[-87.76459,42.783912],[-87.802929,42.493634],[-88.788778,42.493634],[-90.639984,42.510065],[-90.711184,42.636034],[-91.067185,42.75105],[-91.143862,42.909881],[-91.176724,43.134436],[-91.056231,43.254929],[-91.204109,43.353514],[-91.215062,43.501391],[-91.269832,43.616407],[-91.242447,43.775238],[-91.43414,43.994316],[-91.592971,44.032654],[-91.877772,44.202439],[-91.927065,44.333886],[-92.233773,44.443425],[-92.337835,44.552964],[-92.545959,44.569394],[-92.808852,44.750133],[-92.737652,45.117088],[-92.75956,45.286874],[-92.644544,45.440228],[-92.770513,45.566198],[-92.885529,45.577151],[-92.869098,45.719552],[-92.639067,45.933153],[-92.354266,46.015307],[-92.29402,46.075553],[-92.29402,46.667063],[-92.091373,46.749217],[-92.014696,46.705401],[-91.790141,46.694447],[-91.09457,46.864232],[-90.837154,46.95734],[-90.749522,46.88614],[-90.886446,46.754694],[-90.55783,46.584908],[-90.415429,46.568478]]]}}]}