{"type": "FeatureCollection", "features": [{"type": "Feature", "geometry": {"type": "Point", "coordinates": [-83.07818412780762, 35.55953216664026]}, "properties": {"lat": 35.55953216664026, "lon": -83.07818412780762, "elev": 1246, "slope": 24.8, "aspect": 40.5, "terrain": 0.807, "soil": 0.98, "combined": 0.893, "series": "Whiteoak", "landform": "COVE", "drainage": "Well drained", "pmkind": "Colluvium", "pmorigin": "Arkose", "land": "not National Forest"}}, {"type": "Feature", "geometry": {"type": "Point", "coordinates": [-83.08230400085449, 35.56539719072165]}, "properties": {"lat": 35.56539719072165, "lon": -83.08230400085449, "elev": 1157, "slope": 23.8, "aspect": 52.3, "terrain": 0.799, "soil": 0.98, "combined": 0.89, "series": "Whiteoak", "landform": "COVE", "drainage": "Well drained", "pmkind": "Colluvium", "pmorigin": "Arkose", "land": "not National Forest"}}, {"type": "Feature", "geometry": {"type": "Point", "coordinates": [-83.08402061462402, 35.56651428949985]}, "properties": {"lat": 35.56651428949985, "lon": -83.08402061462402, "elev": 1183, "slope": 23.7, "aspect": 63.0, "terrain": 0.795, "soil": 0.98, "combined": 0.887, "series": "Whiteoak", "landform": "COVE", "drainage": "Well drained", "pmkind": "Colluvium", "pmorigin": "Arkose", "land": "not National Forest"}}, {"type": "Feature", "geometry": {"type": "Point", "coordinates": [-83.07646751403809, 35.56595574205744]}, "properties": {"lat": 35.56595574205744, "lon": -83.07646751403809, "elev": 1107, "slope": 22.3, "aspect": 36.6, "terrain": 0.789, "soil": 0.98, "combined": 0.885, "series": "Whiteoak", "landform": "COVE", "drainage": "Well drained", "pmkind": "Colluvium", "pmorigin": "Arkose", "land": "not National Forest"}}, {"type": "Feature", "geometry": {"type": "Point", "coordinates": [-83.07990074157715, 35.56037005350224]}, "properties": {"lat": 35.56037005350224, "lon": -83.07990074157715, "elev": 1244, "slope": 23.5, "aspect": 10.4, "terrain": 0.781, "soil": 0.98, "combined": 0.881, "series": "Whiteoak", "landform": "COVE", "drainage": "Well drained", "pmkind": "Colluvium", "pmorigin": "Arkose", "land": "not National Forest"}}, {"type": "Feature", "geometry": {"type": "Point", "coordinates": [-83.07921409606934, 35.56288366153087]}, "properties": {"lat": 35.56288366153087, "lon": -83.07921409606934, "elev": 1179, "slope": 21.0, "aspect": 55.0, "terrain": 0.78, "soil": 0.98, "combined": 0.88, "series": "Whiteoak", "landform": "COVE", "drainage": "Well drained", "pmkind": "Colluvium", "pmorigin": "Arkose", "land": "not National Forest"}}, {"type": "Feature", "geometry": {"type": "Point", "coordinates": [-83.0829906463623, 35.57237880257653]}, "properties": {"lat": 35.57237880257653, "lon": -83.0829906463623, "elev": 1301, "slope": 51.2, "aspect": 37.8, "terrain": 0.794, "soil": 0.965, "combined": 0.879, "series": "Heintooga", "landform": "COVE", "drainage": "Well drained", "pmkind": "Colluvium", "pmorigin": "Metasedimentary rock", "land": "not National Forest"}}, {"type": "Feature", "geometry": {"type": "Point", "coordinates": [-83.07475090026855, 35.56539719072165]}, "properties": {"lat": 35.56539719072165, "lon": -83.07475090026855, "elev": 1103, "slope": 26.7, "aspect": 29.2, "terrain": 0.779, "soil": 0.98, "combined": 0.879, "series": "Whiteoak", "landform": "COVE", "drainage": "Well drained", "pmkind": "Colluvium", "pmorigin": "Arkose", "land": "not National Forest"}}, {"type": "Feature", "geometry": {"type": "Point", "coordinates": [-83.07887077331543, 35.55785636663815]}, "properties": {"lat": 35.55785636663815, "lon": -83.07887077331543, "elev": 1298, "slope": 24.2, "aspect": 73.9, "terrain": 0.791, "soil": 0.965, "combined": 0.878, "series": "Heintooga", "landform": "COVE", "drainage": "Well drained", "pmkind": "Colluvium", "pmorigin": "Metasedimentary rock", "land": "not National Forest"}}, {"type": "Feature", "geometry": {"type": "Point", "coordinates": [-83.08985710144043, 35.56846917488765]}, "properties": {"lat": 35.56846917488765, "lon": -83.08985710144043, "elev": 1367, "slope": 25.0, "aspect": 33.5, "terrain": 0.779, "soil": 0.965, "combined": 0.872, "series": "Heintooga", "landform": "COVE", "drainage": "Well drained", "pmkind": "Colluvium", "pmorigin": "Metasedimentary rock", "land": "not National Forest"}}, {"type": "Feature", "geometry": {"type": "Point", "coordinates": [-83.07578086853027, 35.56176651213996]}, "properties": {"lat": 35.56176651213996, "lon": -83.07578086853027, "elev": 1159, "slope": 19.6, "aspect": 13.5, "terrain": 0.76, "soil": 0.98, "combined": 0.87, "series": "Whiteoak", "landform": "COVE", "drainage": "Well drained", "pmkind": "Colluvium", "pmorigin": "Arkose"}}, {"type": "Feature", "geometry": {"type": "Point", "coordinates": [-83.08058738708496, 35.572937305243336]}, "properties": {"lat": 35.572937305243336, "lon": -83.08058738708496, "elev": 1234, "slope": 28.3, "aspect": 45.2, "terrain": 0.758, "soil": 0.98, "combined": 0.869, "series": "Cullasaja", "landform": "COVE", "drainage": "Well drained", "pmkind": "Colluvium", "pmorigin": "Igneous and metamorphic rock"}}, {"type": "Feature", "geometry": {"type": "Point", "coordinates": [-83.0881404876709, 35.56148722235899]}, "properties": {"lat": 35.56148722235899, "lon": -83.0881404876709, "elev": 1328, "slope": 21.2, "aspect": 53.8, "terrain": 0.77, "soil": 0.965, "combined": 0.868, "series": "Heintooga", "landform": "COVE", "drainage": "Well drained", "pmkind": "Colluvium", "pmorigin": "Metasedimentary rock"}}, {"type": "Feature", "geometry": {"type": "Point", "coordinates": [-83.07784080505371, 35.56288366153087]}, "properties": {"lat": 35.56288366153087, "lon": -83.07784080505371, "elev": 1168, "slope": 18.0, "aspect": 18.7, "terrain": 0.754, "soil": 0.98, "combined": 0.867, "series": "Whiteoak", "landform": "COVE", "drainage": "Well drained", "pmkind": "Colluvium", "pmorigin": "Arkose"}}, {"type": "Feature", "geometry": {"type": "Point", "coordinates": [-83.07818412780762, 35.56092863987718]}, "properties": {"lat": 35.56092863987718, "lon": -83.07818412780762, "elev": 1203, "slope": 17.3, "aspect": 27.2, "terrain": 0.753, "soil": 0.98, "combined": 0.867, "series": "Whiteoak", "landform": "COVE", "drainage": "Well drained", "pmkind": "Colluvium", "pmorigin": "Arkose"}}, {"type": "Feature", "geometry": {"type": "Point", "coordinates": [-83.09535026550293, 35.577125951131094]}, "properties": {"lat": 35.577125951131094, "lon": -83.09535026550293, "elev": 1383, "slope": 24.0, "aspect": 39.1, "terrain": 0.768, "soil": 0.965, "combined": 0.866, "series": "Heintooga", "landform": "COVE", "drainage": "Well drained", "pmkind": "Colluvium", "pmorigin": "Metasedimentary rock"}}, {"type": "Feature", "geometry": {"type": "Point", "coordinates": [-83.05449485778809, 35.56428007637007]}, "properties": {"lat": 35.56428007637007, "lon": -83.05449485778809, "elev": 916, "slope": 25.2, "aspect": 49.3, "terrain": 0.805, "soil": 0.927, "combined": 0.866, "series": "Saunook", "landform": "colluvial fan", "drainage": "Well drained", "pmkind": "Colluvium", "pmorigin": "Igneous and metamorphic rock"}}, {"type": "Feature", "geometry": {"type": "Point", "coordinates": [-83.08024406433105, 35.55645983987203]}, "properties": {"lat": 35.55645983987203, "lon": -83.08024406433105, "elev": 1368, "slope": 24.4, "aspect": 40.5, "terrain": 0.766, "soil": 0.965, "combined": 0.866, "series": "Heintooga", "landform": "COVE", "drainage": "Well drained", "pmkind": "Colluvium", "pmorigin": "Metasedimentary rock"}}, {"type": "Feature", "geometry": {"type": "Point", "coordinates": [-83.05586814880371, 35.56483863549253]}, "properties": {"lat": 35.56483863549253, "lon": -83.05586814880371, "elev": 909, "slope": 24.2, "aspect": 39.0, "terrain": 0.803, "soil": 0.927, "combined": 0.865, "series": "Saunook", "landform": "colluvial fan", "drainage": "Well drained", "pmkind": "Colluvium", "pmorigin": "Igneous and metamorphic rock"}}, {"type": "Feature", "geometry": {"type": "Point", "coordinates": [-83.06754112243652, 35.55757706323141]}, "properties": {"lat": 35.55757706323141, "lon": -83.06754112243652, "elev": 1102, "slope": 24.8, "aspect": 29.3, "terrain": 0.804, "soil": 0.927, "combined": 0.865, "series": "Saunook", "landform": "colluvial fan", "drainage": "Well drained", "pmkind": "Colluvium", "pmorigin": "Igneous and metamorphic rock"}}, {"type": "Feature", "geometry": {"type": "Point", "coordinates": [-83.07063102722168, 35.55673914717173]}, "properties": {"lat": 35.55673914717173, "lon": -83.07063102722168, "elev": 1149, "slope": 24.3, "aspect": 43.7, "terrain": 0.804, "soil": 0.927, "combined": 0.865, "series": "Saunook", "landform": "colluvial fan", "drainage": "Well drained", "pmkind": "Colluvium", "pmorigin": "Igneous and metamorphic rock"}}, {"type": "Feature", "geometry": {"type": "Point", "coordinates": [-83.07475090026855, 35.56372151335434]}, "properties": {"lat": 35.56372151335434, "lon": -83.07475090026855, "elev": 1125, "slope": 23.6, "aspect": 107.5, "terrain": 0.749, "soil": 0.98, "combined": 0.864, "series": "Whiteoak", "landform": "COVE", "drainage": "Well drained", "pmkind": "Colluvium", "pmorigin": "Arkose"}}, {"type": "Feature", "geometry": {"type": "Point", "coordinates": [-83.05621147155762, 35.55478397563607]}, "properties": {"lat": 35.55478397563607, "lon": -83.05621147155762, "elev": 1086, "slope": 23.6, "aspect": 30.5, "terrain": 0.796, "soil": 0.927, "combined": 0.861, "series": "Saunook", "landform": "colluvial fan", "drainage": "Well drained", "pmkind": "Colluvium", "pmorigin": "Igneous and metamorphic rock"}}, {"type": "Feature", "geometry": {"type": "Point", "coordinates": [-83.06548118591309, 35.56539719072165]}, "properties": {"lat": 35.56539719072165, "lon": -83.06548118591309, "elev": 1025, "slope": 24.1, "aspect": 19.7, "terrain": 0.793, "soil": 0.927, "combined": 0.86, "series": "Saunook", "landform": "colluvial fan", "drainage": "Well drained", "pmkind": "Colluvium", "pmorigin": "Igneous and metamorphic rock"}}, {"type": "Feature", "geometry": {"type": "Point", "coordinates": [-83.07303428649902, 35.56428007637007]}, "properties": {"lat": 35.56428007637007, "lon": -83.07303428649902, "elev": 1098, "slope": 20.4, "aspect": 351.2, "terrain": 0.739, "soil": 0.98, "combined": 0.86, "series": "Whiteoak", "landform": "COVE", "drainage": "Well drained", "pmkind": "Colluvium", "pmorigin": "Arkose"}}]}