{"type": "FeatureCollection", "features": [{"type": "Feature", "geometry": {"type": "Point", "coordinates": [-82.97175407409668, 35.53411210290147]}, "properties": {"lat": 35.53411210290147, "lon": -82.97175407409668, "elev": 788, "slope": 19.9, "aspect": 44.8, "terrain": 0.774, "soil": 0.98, "combined": 0.877, "series": "Saunook", "landform": "COVE", "drainage": "Well drained", "pmkind": "Colluvium", "pmorigin": "Igneous and metamorphic rock", "land": "not National Forest"}}, {"type": "Feature", "geometry": {"type": "Point", "coordinates": [-82.9786205291748, 35.51147867496246]}, "properties": {"lat": 35.51147867496246, "lon": -82.9786205291748, "elev": 817, "slope": 24.5, "aspect": 56.5, "terrain": 0.803, "soil": 0.927, "combined": 0.865, "series": "Saunook", "landform": "colluvial fan", "drainage": "Well drained", "pmkind": "Colluvium", "pmorigin": "Igneous and metamorphic rock", "land": "not National Forest"}}, {"type": "Feature", "geometry": {"type": "Point", "coordinates": [-82.9401683807373, 35.515949981405996]}, "properties": {"lat": 35.515949981405996, "lon": -82.9401683807373, "elev": 842, "slope": 25.5, "aspect": 37.6, "terrain": 0.8, "soil": 0.927, "combined": 0.864, "series": "Saunook", "landform": "colluvial fan", "drainage": "Well drained", "pmkind": "Colluvium", "pmorigin": "Igneous and metamorphic rock", "land": "not National Forest"}}, {"type": "Feature", "geometry": {"type": "Point", "coordinates": [-82.93913841247559, 35.51427327067176]}, "properties": {"lat": 35.51427327067176, "lon": -82.93913841247559, "elev": 854, "slope": 24.9, "aspect": 67.0, "terrain": 0.8, "soil": 0.927, "combined": 0.864, "series": "Saunook", "landform": "colluvial fan", "drainage": "Well drained", "pmkind": "Colluvium", "pmorigin": "Igneous and metamorphic rock", "land": "not National Forest"}}, {"type": "Feature", "geometry": {"type": "Point", "coordinates": [-82.94428825378418, 35.50840450733459]}, "properties": {"lat": 35.50840450733459, "lon": -82.94428825378418, "elev": 838, "slope": 23.9, "aspect": 60.6, "terrain": 0.797, "soil": 0.927, "combined": 0.862, "series": "Saunook", "landform": "colluvial fan", "drainage": "Well drained", "pmkind": "Colluvium", "pmorigin": "Igneous and metamorphic rock", "land": "not National Forest"}}, {"type": "Feature", "geometry": {"type": "Point", "coordinates": [-82.98205375671387, 35.51455272489267]}, "properties": {"lat": 35.51455272489267, "lon": -82.98205375671387, "elev": 794, "slope": 14.2, "aspect": 30.5, "terrain": 0.735, "soil": 0.98, "combined": 0.858, "series": "Saunook", "landform": "COVE", "drainage": "Well drained", "pmkind": "Colluvium", "pmorigin": "Igneous and metamorphic rock", "land": "not National Forest"}}, {"type": "Feature", "geometry": {"type": "Point", "coordinates": [-82.97038078308105, 35.532435771581206]}, "properties": {"lat": 35.532435771581206, "lon": -82.97038078308105, "elev": 784, "slope": 18.3, "aspect": 100.0, "terrain": 0.732, "soil": 0.98, "combined": 0.856, "series": "Saunook", "landform": "COVE", "drainage": "Well drained", "pmkind": "Colluvium", "pmorigin": "Igneous and metamorphic rock", "land": "not National Forest"}}, {"type": "Feature", "geometry": {"type": "Point", "coordinates": [-82.97038078308105, 35.535509018911654]}, "properties": {"lat": 35.535509018911654, "lon": -82.97038078308105, "elev": 799, "slope": 18.3, "aspect": 102.9, "terrain": 0.729, "soil": 0.98, "combined": 0.854, "series": "Saunook", "landform": "COVE", "drainage": "Well drained", "pmkind": "Colluvium", "pmorigin": "Igneous and metamorphic rock", "land": "not National Forest"}}, {"type": "Feature", "geometry": {"type": "Point", "coordinates": [-82.9401683807373, 35.5271271579942]}, "properties": {"lat": 35.5271271579942, "lon": -82.9401683807373, "elev": 797, "slope": 25.1, "aspect": 88.4, "terrain": 0.78, "soil": 0.927, "combined": 0.853, "series": "Saunook", "landform": "colluvial fan", "drainage": "Well drained", "pmkind": "Colluvium", "pmorigin": "Igneous and metamorphic rock", "land": "not National Forest"}}, {"type": "Feature", "geometry": {"type": "Point", "coordinates": [-82.9398250579834, 35.52573009604432]}, "properties": {"lat": 35.52573009604432, "lon": -82.9398250579834, "elev": 801, "slope": 21.9, "aspect": 69.7, "terrain": 0.779, "soil": 0.927, "combined": 0.853, "series": "Saunook", "landform": "colluvial fan", "drainage": "Well drained", "pmkind": "Colluvium", "pmorigin": "Igneous and metamorphic rock", "land": "not National Forest"}}, {"type": "Feature", "geometry": {"type": "Point", "coordinates": [-82.94497489929199, 35.52321532324373]}, "properties": {"lat": 35.52321532324373, "lon": -82.94497489929199, "elev": 836, "slope": 26.9, "aspect": 31.2, "terrain": 0.776, "soil": 0.927, "combined": 0.851, "series": "Saunook", "landform": "colluvial fan", "drainage": "Well drained", "pmkind": "Colluvium", "pmorigin": "Igneous and metamorphic rock"}}, {"type": "Feature", "geometry": {"type": "Point", "coordinates": [-82.94257164001465, 35.51958273452668]}, "properties": {"lat": 35.51958273452668, "lon": -82.94257164001465, "elev": 839, "slope": 24.7, "aspect": 28.3, "terrain": 0.775, "soil": 0.927, "combined": 0.851, "series": "Saunook", "landform": "colluvial fan", "drainage": "Well drained", "pmkind": "Colluvium", "pmorigin": "Igneous and metamorphic rock"}}, {"type": "Feature", "geometry": {"type": "Point", "coordinates": [-82.98068046569824, 35.51511163041625]}, "properties": {"lat": 35.51511163041625, "lon": -82.98068046569824, "elev": 794, "slope": 17.5, "aspect": 344.3, "terrain": 0.722, "soil": 0.98, "combined": 0.851, "series": "Saunook", "landform": "COVE", "drainage": "Well drained", "pmkind": "Colluvium", "pmorigin": "Igneous and metamorphic rock"}}, {"type": "Feature", "geometry": {"type": "Point", "coordinates": [-82.95699119567871, 35.520421038822924]}, "properties": {"lat": 35.520421038822924, "lon": -82.95699119567871, "elev": 803, "slope": 20.8, "aspect": 72.8, "terrain": 0.77, "soil": 0.927, "combined": 0.849, "series": "Saunook", "landform": "colluvial fan", "drainage": "Well drained", "pmkind": "Colluvium", "pmorigin": "Igneous and metamorphic rock"}}, {"type": "Feature", "geometry": {"type": "Point", "coordinates": [-82.95973777770996, 35.51818554124362]}, "properties": {"lat": 35.51818554124362, "lon": -82.95973777770996, "elev": 828, "slope": 22.9, "aspect": 5.0, "terrain": 0.77, "soil": 0.927, "combined": 0.849, "series": "Saunook", "landform": "colluvial fan", "drainage": "Well drained", "pmkind": "Colluvium", "pmorigin": "Igneous and metamorphic rock"}}, {"type": "Feature", "geometry": {"type": "Point", "coordinates": [-82.94360160827637, 35.53495025542652]}, "properties": {"lat": 35.53495025542652, "lon": -82.94360160827637, "elev": 803, "slope": 21.2, "aspect": 7.1, "terrain": 0.765, "soil": 0.927, "combined": 0.846, "series": "Saunook", "landform": "colluvial fan", "drainage": "Well drained", "pmkind": "Colluvium", "pmorigin": "Igneous and metamorphic rock"}}, {"type": "Feature", "geometry": {"type": "Point", "coordinates": [-82.96935081481934, 35.53131819790861]}, "properties": {"lat": 35.53131819790861, "lon": -82.96935081481934, "elev": 783, "slope": 10.3, "aspect": 36.1, "terrain": 0.713, "soil": 0.98, "combined": 0.846, "series": "Saunook", "landform": "COVE", "drainage": "Well drained", "pmkind": "Colluvium", "pmorigin": "Igneous and metamorphic rock"}}, {"type": "Feature", "geometry": {"type": "Point", "coordinates": [-82.95767784118652, 35.518744421475226]}, "properties": {"lat": 35.518744421475226, "lon": -82.95767784118652, "elev": 810, "slope": 21.8, "aspect": 4.0, "terrain": 0.765, "soil": 0.927, "combined": 0.846, "series": "Saunook", "landform": "colluvial fan", "drainage": "Well drained", "pmkind": "Colluvium", "pmorigin": "Igneous and metamorphic rock"}}, {"type": "Feature", "geometry": {"type": "Point", "coordinates": [-82.9786205291748, 35.537464660460316]}, "properties": {"lat": 35.537464660460316, "lon": -82.9786205291748, "elev": 839, "slope": 19.8, "aspect": 13.6, "terrain": 0.761, "soil": 0.927, "combined": 0.844, "series": "Saunook", "landform": "colluvial fan", "drainage": "Well drained", "pmkind": "Colluvium", "pmorigin": "Igneous and metamorphic rock"}}, {"type": "Feature", "geometry": {"type": "Point", "coordinates": [-82.94875144958496, 35.510640277281716]}, "properties": {"lat": 35.510640277281716, "lon": -82.94875144958496, "elev": 850, "slope": 25.5, "aspect": 96.9, "terrain": 0.762, "soil": 0.927, "combined": 0.844, "series": "Saunook", "landform": "colluvial fan", "drainage": "Well drained", "pmkind": "Colluvium", "pmorigin": "Igneous and metamorphic rock"}}, {"type": "Feature", "geometry": {"type": "Point", "coordinates": [-82.95184135437012, 35.50421227089908]}, "properties": {"lat": 35.50421227089908, "lon": -82.95184135437012, "elev": 812, "slope": 20.5, "aspect": 7.9, "terrain": 0.761, "soil": 0.927, "combined": 0.844, "series": "Saunook", "landform": "colluvial fan", "drainage": "Well drained", "pmkind": "Colluvium", "pmorigin": "Igneous and metamorphic rock"}}, {"type": "Feature", "geometry": {"type": "Point", "coordinates": [-82.97690391540527, 35.53774403393239]}, "properties": {"lat": 35.53774403393239, "lon": -82.97690391540527, "elev": 813, "slope": 17.7, "aspect": 39.5, "terrain": 0.759, "soil": 0.927, "combined": 0.843, "series": "Saunook", "landform": "colluvial fan", "drainage": "Well drained", "pmkind": "Colluvium", "pmorigin": "Igneous and metamorphic rock"}}, {"type": "Feature", "geometry": {"type": "Point", "coordinates": [-82.93845176696777, 35.536347156841934]}, "properties": {"lat": 35.536347156841934, "lon": -82.93845176696777, "elev": 814, "slope": 18.6, "aspect": 59.3, "terrain": 0.76, "soil": 0.927, "combined": 0.843, "series": "Saunook", "landform": "colluvial fan", "drainage": "Well drained", "pmkind": "Colluvium", "pmorigin": "Igneous and metamorphic rock"}}, {"type": "Feature", "geometry": {"type": "Point", "coordinates": [-82.94600486755371, 35.535509018911654]}, "properties": {"lat": 35.535509018911654, "lon": -82.94600486755371, "elev": 789, "slope": 17.9, "aspect": 25.2, "terrain": 0.756, "soil": 0.927, "combined": 0.842, "series": "Saunook", "landform": "colluvial fan", "drainage": "Well drained", "pmkind": "Colluvium", "pmorigin": "Igneous and metamorphic rock"}}, {"type": "Feature", "geometry": {"type": "Point", "coordinates": [-82.94257164001465, 35.52936240652352]}, "properties": {"lat": 35.52936240652352, "lon": -82.94257164001465, "elev": 789, "slope": 25.3, "aspect": 5.1, "terrain": 0.756, "soil": 0.927, "combined": 0.841, "series": "Saunook", "landform": "colluvial fan", "drainage": "Well drained", "pmkind": "Colluvium", "pmorigin": "Igneous and metamorphic rock"}}]}