{"type": "FeatureCollection", "features": [{"type": "Feature", "geometry": {"type": "Point", "coordinates": [-83.06822776794434, 35.59276162709524]}, "properties": {"lat": 35.59276162709524, "lon": -83.06822776794434, "elev": 1236, "slope": 24.8, "aspect": 32.7, "terrain": 0.805, "soil": 0.98, "combined": 0.893, "series": "Cullasaja", "landform": "COVE", "drainage": "Well drained", "pmkind": "Colluvium", "pmorigin": "Igneous and metamorphic rock", "land": "not National Forest"}}, {"type": "Feature", "geometry": {"type": "Point", "coordinates": [-83.06754112243652, 35.594157521118326]}, "properties": {"lat": 35.594157521118326, "lon": -83.06754112243652, "elev": 1198, "slope": 24.6, "aspect": 36.3, "terrain": 0.804, "soil": 0.98, "combined": 0.892, "series": "Cullasaja", "landform": "COVE", "drainage": "Well drained", "pmkind": "Colluvium", "pmorigin": "Igneous and metamorphic rock", "land": "not National Forest"}}, {"type": "Feature", "geometry": {"type": "Point", "coordinates": [-83.04934501647949, 35.59834505713554]}, "properties": {"lat": 35.59834505713554, "lon": -83.04934501647949, "elev": 1044, "slope": 25.0, "aspect": 67.0, "terrain": 0.796, "soil": 0.98, "combined": 0.888, "series": "Cullasaja", "landform": "COVE", "drainage": "Well drained", "pmkind": "Colluvium", "pmorigin": "Igneous and metamorphic rock", "land": "not National Forest"}}, {"type": "Feature", "geometry": {"type": "Point", "coordinates": [-83.08367729187012, 35.60671947189957]}, "properties": {"lat": 35.60671947189957, "lon": -83.08367729187012, "elev": 1068, "slope": 24.6, "aspect": 52.2, "terrain": 0.805, "soil": 0.965, "combined": 0.885, "series": "Spivey", "landform": "COVE", "drainage": "Well drained", "pmkind": "Colluvium", "pmorigin": "Metasedimentary rock", "land": "not National Forest"}}, {"type": "Feature", "geometry": {"type": "Point", "coordinates": [-83.04659843444824, 35.612022814611564]}, "properties": {"lat": 35.612022814611564, "lon": -83.04659843444824, "elev": 978, "slope": 22.4, "aspect": 59.9, "terrain": 0.788, "soil": 0.98, "combined": 0.884, "series": "Whiteoak", "landform": "COVE", "drainage": "Well drained", "pmkind": "Colluvium", "pmorigin": "Arkose", "land": "not National Forest"}}, {"type": "Feature", "geometry": {"type": "Point", "coordinates": [-83.06548118591309, 35.592482445369654]}, "properties": {"lat": 35.592482445369654, "lon": -83.06548118591309, "elev": 1258, "slope": 24.8, "aspect": 8.7, "terrain": 0.788, "soil": 0.98, "combined": 0.884, "series": "Cullasaja", "landform": "COVE", "drainage": "Well drained", "pmkind": "Colluvium", "pmorigin": "Igneous and metamorphic rock", "land": "not National Forest"}}, {"type": "Feature", "geometry": {"type": "Point", "coordinates": [-83.07269096374512, 35.61286015237613]}, "properties": {"lat": 35.61286015237613, "lon": -83.07269096374512, "elev": 1041, "slope": 24.2, "aspect": 61.5, "terrain": 0.799, "soil": 0.965, "combined": 0.882, "series": "Spivey", "landform": "COVE", "drainage": "Well drained", "pmkind": "Colluvium", "pmorigin": "Metasedimentary rock", "land": "not National Forest"}}, {"type": "Feature", "geometry": {"type": "Point", "coordinates": [-83.08196067810059, 35.606998603964726]}, "properties": {"lat": 35.606998603964726, "lon": -83.08196067810059, "elev": 1053, "slope": 25.9, "aspect": 44.7, "terrain": 0.795, "soil": 0.965, "combined": 0.88, "series": "Spivey", "landform": "COVE", "drainage": "Well drained", "pmkind": "Colluvium", "pmorigin": "Metasedimentary rock", "land": "not National Forest"}}, {"type": "Feature", "geometry": {"type": "Point", "coordinates": [-83.06994438171387, 35.598065894883625]}, "properties": {"lat": 35.598065894883625, "lon": -83.06994438171387, "elev": 1250, "slope": 24.4, "aspect": 3.5, "terrain": 0.78, "soil": 0.98, "combined": 0.88, "series": "Whiteoak", "landform": "COVE", "drainage": "Well drained", "pmkind": "Colluvium", "pmorigin": "Arkose", "land": "not National Forest"}}, {"type": "Feature", "geometry": {"type": "Point", "coordinates": [-83.07990074157715, 35.605882069861224]}, "properties": {"lat": 35.605882069861224, "lon": -83.07990074157715, "elev": 1075, "slope": 22.8, "aspect": 50.0, "terrain": 0.793, "soil": 0.965, "combined": 0.879, "series": "Spivey", "landform": "COVE", "drainage": "Well drained", "pmkind": "Colluvium", "pmorigin": "Metasedimentary rock", "land": "not National Forest"}}, {"type": "Feature", "geometry": {"type": "Point", "coordinates": [-83.07955741882324, 35.60364895491178]}, "properties": {"lat": 35.60364895491178, "lon": -83.07955741882324, "elev": 1127, "slope": 24.7, "aspect": 78.5, "terrain": 0.79, "soil": 0.965, "combined": 0.878, "series": "Spivey", "landform": "COVE", "drainage": "Well drained", "pmkind": "Colluvium", "pmorigin": "Metasedimentary rock"}}, {"type": "Feature", "geometry": {"type": "Point", "coordinates": [-83.05758476257324, 35.59024895651383]}, "properties": {"lat": 35.59024895651383, "lon": -83.05758476257324, "elev": 1316, "slope": 23.9, "aspect": 26.9, "terrain": 0.79, "soil": 0.965, "combined": 0.878, "series": "Heintooga", "landform": "COVE", "drainage": "Well drained", "pmkind": "Colluvium", "pmorigin": "Metasedimentary rock"}}, {"type": "Feature", "geometry": {"type": "Point", "coordinates": [-83.06582450866699, 35.59527421881075]}, "properties": {"lat": 35.59527421881075, "lon": -83.06582450866699, "elev": 1168, "slope": 26.9, "aspect": 15.9, "terrain": 0.766, "soil": 0.98, "combined": 0.873, "series": "Cullasaja", "landform": "COVE", "drainage": "Well drained", "pmkind": "Colluvium", "pmorigin": "Igneous and metamorphic rock"}}, {"type": "Feature", "geometry": {"type": "Point", "coordinates": [-83.06445121765137, 35.593878344261036]}, "properties": {"lat": 35.593878344261036, "lon": -83.06445121765137, "elev": 1203, "slope": 20.9, "aspect": 10.3, "terrain": 0.766, "soil": 0.98, "combined": 0.873, "series": "Cullasaja", "landform": "COVE", "drainage": "Well drained", "pmkind": "Colluvium", "pmorigin": "Igneous and metamorphic rock"}}, {"type": "Feature", "geometry": {"type": "Point", "coordinates": [-83.06994438171387, 35.60951074872895]}, "properties": {"lat": 35.60951074872895, "lon": -83.06994438171387, "elev": 1123, "slope": 25.8, "aspect": 10.2, "terrain": 0.778, "soil": 0.965, "combined": 0.871, "series": "Spivey", "landform": "COVE", "drainage": "Well drained", "pmkind": "Colluvium", "pmorigin": "Metasedimentary rock"}}, {"type": "Feature", "geometry": {"type": "Point", "coordinates": [-83.06033134460449, 35.594157521118326]}, "properties": {"lat": 35.594157521118326, "lon": -83.06033134460449, "elev": 1240, "slope": 23.5, "aspect": 5.6, "terrain": 0.777, "soil": 0.965, "combined": 0.871, "series": "Spivey", "landform": "COVE", "drainage": "Well drained", "pmkind": "Colluvium", "pmorigin": "Metasedimentary rock"}}, {"type": "Feature", "geometry": {"type": "Point", "coordinates": [-83.08505058288574, 35.606161204847815]}, "properties": {"lat": 35.606161204847815, "lon": -83.08505058288574, "elev": 1076, "slope": 25.6, "aspect": 2.4, "terrain": 0.773, "soil": 0.965, "combined": 0.869, "series": "Spivey", "landform": "COVE", "drainage": "Well drained", "pmkind": "Colluvium", "pmorigin": "Metasedimentary rock"}}, {"type": "Feature", "geometry": {"type": "Point", "coordinates": [-83.0606746673584, 35.590528146028525]}, "properties": {"lat": 35.590528146028525, "lon": -83.0606746673584, "elev": 1353, "slope": 25.5, "aspect": 25.3, "terrain": 0.773, "soil": 0.965, "combined": 0.869, "series": "Heintooga", "landform": "COVE", "drainage": "Well drained", "pmkind": "Colluvium", "pmorigin": "Metasedimentary rock"}}, {"type": "Feature", "geometry": {"type": "Point", "coordinates": [-83.07097434997559, 35.60281152073829]}, "properties": {"lat": 35.60281152073829, "lon": -83.07097434997559, "elev": 1349, "slope": 24.3, "aspect": 12.1, "terrain": 0.769, "soil": 0.965, "combined": 0.867, "series": "Heintooga", "landform": "COVE", "drainage": "Well drained", "pmkind": "Colluvium", "pmorigin": "Metasedimentary rock"}}, {"type": "Feature", "geometry": {"type": "Point", "coordinates": [-83.07818412780762, 35.603369811161066]}, "properties": {"lat": 35.603369811161066, "lon": -83.07818412780762, "elev": 1132, "slope": 20.8, "aspect": 14.1, "terrain": 0.768, "soil": 0.965, "combined": 0.866, "series": "Spivey", "landform": "COVE", "drainage": "Well drained", "pmkind": "Colluvium", "pmorigin": "Metasedimentary rock"}}, {"type": "Feature", "geometry": {"type": "Point", "coordinates": [-83.06033134460449, 35.596111731856425]}, "properties": {"lat": 35.596111731856425, "lon": -83.06033134460449, "elev": 1173, "slope": 23.3, "aspect": 358.1, "terrain": 0.768, "soil": 0.965, "combined": 0.866, "series": "Spivey", "landform": "COVE", "drainage": "Well drained", "pmkind": "Colluvium", "pmorigin": "Metasedimentary rock"}}, {"type": "Feature", "geometry": {"type": "Point", "coordinates": [-83.08436393737793, 35.60839424968318]}, "properties": {"lat": 35.60839424968318, "lon": -83.08436393737793, "elev": 1041, "slope": 27.4, "aspect": 64.1, "terrain": 0.765, "soil": 0.965, "combined": 0.865, "series": "Spivey", "landform": "COVE", "drainage": "Well drained", "pmkind": "Colluvium", "pmorigin": "Metasedimentary rock"}}, {"type": "Feature", "geometry": {"type": "Point", "coordinates": [-83.0661678314209, 35.57824288637636]}, "properties": {"lat": 35.57824288637636, "lon": -83.0661678314209, "elev": 1288, "slope": 18.8, "aspect": 58.7, "terrain": 0.764, "soil": 0.965, "combined": 0.865, "series": "Heintooga", "landform": "COVE", "drainage": "Well drained", "pmkind": "Colluvium", "pmorigin": "Metasedimentary rock"}}, {"type": "Feature", "geometry": {"type": "Point", "coordinates": [-83.0720043182373, 35.611464584565816]}, "properties": {"lat": 35.611464584565816, "lon": -83.0720043182373, "elev": 1071, "slope": 18.3, "aspect": 33.6, "terrain": 0.762, "soil": 0.965, "combined": 0.864, "series": "Spivey", "landform": "COVE", "drainage": "Well drained", "pmkind": "Colluvium", "pmorigin": "Metasedimentary rock"}}, {"type": "Feature", "geometry": {"type": "Point", "coordinates": [-83.0720043182373, 35.59276162709524]}, "properties": {"lat": 35.59276162709524, "lon": -83.0720043182373, "elev": 1314, "slope": 25.2, "aspect": 95.7, "terrain": 0.763, "soil": 0.965, "combined": 0.864, "series": "Heintooga", "landform": "COVE", "drainage": "Well drained", "pmkind": "Colluvium", "pmorigin": "Metasedimentary rock"}}]}