{"type": "FeatureCollection", "features": [{"type": "Feature", "geometry": {"type": "Point", "coordinates": [-83.0387020111084, 35.62011671250473]}, "properties": {"lat": 35.62011671250473, "lon": -83.0387020111084, "elev": 969, "slope": 24.8, "aspect": 41.7, "terrain": 0.807, "soil": 0.98, "combined": 0.894, "series": "Whiteoak", "landform": "COVE", "drainage": "Well drained", "pmkind": "Colluvium", "pmorigin": "Arkose", "land": "not National Forest"}}, {"type": "Feature", "geometry": {"type": "Point", "coordinates": [-83.04110527038574, 35.61983762621251]}, "properties": {"lat": 35.61983762621251, "lon": -83.04110527038574, "elev": 1058, "slope": 25.0, "aspect": 50.0, "terrain": 0.808, "soil": 0.98, "combined": 0.894, "series": "Whiteoak", "landform": "COVE", "drainage": "Well drained", "pmkind": "Colluvium", "pmorigin": "Arkose", "land": "not National Forest"}}, {"type": "Feature", "geometry": {"type": "Point", "coordinates": [-83.01569938659668, 35.61230192817364]}, "properties": {"lat": 35.61230192817364, "lon": -83.01569938659668, "elev": 795, "slope": 25.0, "aspect": 31.9, "terrain": 0.806, "soil": 0.98, "combined": 0.893, "series": "Whiteoak", "landform": "COVE", "drainage": "Well drained", "pmkind": "Colluvium", "pmorigin": "Arkose", "land": "National Forests in North Carolina"}}, {"type": "Feature", "geometry": {"type": "Point", "coordinates": [-83.03011894226074, 35.61397658909445]}, "properties": {"lat": 35.61397658909445, "lon": -83.03011894226074, "elev": 856, "slope": 25.2, "aspect": 31.4, "terrain": 0.803, "soil": 0.98, "combined": 0.892, "series": "Whiteoak", "landform": "COVE", "drainage": "Well drained", "pmkind": "Colluvium", "pmorigin": "Arkose", "land": "not National Forest"}}, {"type": "Feature", "geometry": {"type": "Point", "coordinates": [-83.03114891052246, 35.62569823381145]}, "properties": {"lat": 35.62569823381145, "lon": -83.03114891052246, "elev": 1139, "slope": 24.6, "aspect": 62.7, "terrain": 0.801, "soil": 0.98, "combined": 0.891, "series": "Whiteoak", "landform": "COVE", "drainage": "Well drained", "pmkind": "Colluvium", "pmorigin": "Arkose", "land": "National Forests in North Carolina"}}, {"type": "Feature", "geometry": {"type": "Point", "coordinates": [-83.01363945007324, 35.62848884836132]}, "properties": {"lat": 35.62848884836132, "lon": -83.01363945007324, "elev": 813, "slope": 24.4, "aspect": 29.1, "terrain": 0.801, "soil": 0.98, "combined": 0.89, "series": "Whiteoak", "landform": "COVE", "drainage": "Well drained", "pmkind": "Colluvium", "pmorigin": "Arkose", "land": "National Forests in North Carolina"}}, {"type": "Feature", "geometry": {"type": "Point", "coordinates": [-83.04625511169434, 35.62458196071836]}, "properties": {"lat": 35.62458196071836, "lon": -83.04625511169434, "elev": 1047, "slope": 23.9, "aspect": 54.3, "terrain": 0.799, "soil": 0.98, "combined": 0.89, "series": "Whiteoak", "landform": "COVE", "drainage": "Well drained", "pmkind": "Colluvium", "pmorigin": "Arkose", "land": "not National Forest"}}, {"type": "Feature", "geometry": {"type": "Point", "coordinates": [-83.0496883392334, 35.621512129356276]}, "properties": {"lat": 35.621512129356276, "lon": -83.0496883392334, "elev": 1108, "slope": 25.3, "aspect": 26.6, "terrain": 0.799, "soil": 0.98, "combined": 0.89, "series": "Whiteoak", "landform": "COVE", "drainage": "Well drained", "pmkind": "Colluvium", "pmorigin": "Arkose", "land": "not National Forest"}}, {"type": "Feature", "geometry": {"type": "Point", "coordinates": [-83.04350852966309, 35.62374474567131]}, "properties": {"lat": 35.62374474567131, "lon": -83.04350852966309, "elev": 1010, "slope": 24.6, "aspect": 23.0, "terrain": 0.799, "soil": 0.98, "combined": 0.889, "series": "Whiteoak", "landform": "COVE", "drainage": "Well drained", "pmkind": "Colluvium", "pmorigin": "Arkose", "land": "not National Forest"}}, {"type": "Feature", "geometry": {"type": "Point", "coordinates": [-83.03973197937012, 35.62234936777939]}, "properties": {"lat": 35.62234936777939, "lon": -83.03973197937012, "elev": 979, "slope": 23.2, "aspect": 51.9, "terrain": 0.796, "soil": 0.98, "combined": 0.888, "series": "Whiteoak", "landform": "COVE", "drainage": "Well drained", "pmkind": "Colluvium", "pmorigin": "Arkose", "land": "not National Forest"}}, {"type": "Feature", "geometry": {"type": "Point", "coordinates": [-83.04934501647949, 35.59834505713554]}, "properties": {"lat": 35.59834505713554, "lon": -83.04934501647949, "elev": 1044, "slope": 25.0, "aspect": 67.0, "terrain": 0.796, "soil": 0.98, "combined": 0.888, "series": "Cullasaja", "landform": "COVE", "drainage": "Well drained", "pmkind": "Colluvium", "pmorigin": "Igneous and metamorphic rock"}}, {"type": "Feature", "geometry": {"type": "Point", "coordinates": [-83.03458213806152, 35.61481390640728]}, "properties": {"lat": 35.61481390640728, "lon": -83.03458213806152, "elev": 904, "slope": 23.5, "aspect": 63.1, "terrain": 0.793, "soil": 0.98, "combined": 0.887, "series": "Whiteoak", "landform": "COVE", "drainage": "Well drained", "pmkind": "Colluvium", "pmorigin": "Arkose"}}, {"type": "Feature", "geometry": {"type": "Point", "coordinates": [-83.01878929138184, 35.61648851473731]}, "properties": {"lat": 35.61648851473731, "lon": -83.01878929138184, "elev": 814, "slope": 26.0, "aspect": 47.9, "terrain": 0.793, "soil": 0.98, "combined": 0.886, "series": "Whiteoak", "landform": "COVE", "drainage": "Well drained", "pmkind": "Colluvium", "pmorigin": "Arkose"}}, {"type": "Feature", "geometry": {"type": "Point", "coordinates": [-83.05380821228027, 35.63100031817365]}, "properties": {"lat": 35.63100031817365, "lon": -83.05380821228027, "elev": 1123, "slope": 24.3, "aspect": 35.9, "terrain": 0.803, "soil": 0.965, "combined": 0.884, "series": "Spivey", "landform": "COVE", "drainage": "Well drained", "pmkind": "Colluvium", "pmorigin": "Metasedimentary rock"}}, {"type": "Feature", "geometry": {"type": "Point", "coordinates": [-83.01638603210449, 35.628767904458996]}, "properties": {"lat": 35.628767904458996, "lon": -83.01638603210449, "elev": 835, "slope": 23.6, "aspect": 16.2, "terrain": 0.787, "soil": 0.98, "combined": 0.884, "series": "Whiteoak", "landform": "COVE", "drainage": "Well drained", "pmkind": "Colluvium", "pmorigin": "Arkose"}}, {"type": "Feature", "geometry": {"type": "Point", "coordinates": [-83.01844596862793, 35.612581040761825]}, "properties": {"lat": 35.612581040761825, "lon": -83.01844596862793, "elev": 836, "slope": 22.0, "aspect": 44.3, "terrain": 0.788, "soil": 0.98, "combined": 0.884, "series": "Whiteoak", "landform": "COVE", "drainage": "Well drained", "pmkind": "Colluvium", "pmorigin": "Arkose"}}, {"type": "Feature", "geometry": {"type": "Point", "coordinates": [-83.04659843444824, 35.612022814611564]}, "properties": {"lat": 35.612022814611564, "lon": -83.04659843444824, "elev": 978, "slope": 22.4, "aspect": 59.9, "terrain": 0.788, "soil": 0.98, "combined": 0.884, "series": "Whiteoak", "landform": "COVE", "drainage": "Well drained", "pmkind": "Colluvium", "pmorigin": "Arkose"}}, {"type": "Feature", "geometry": {"type": "Point", "coordinates": [-83.03595542907715, 35.61453480161024]}, "properties": {"lat": 35.61453480161024, "lon": -83.03595542907715, "elev": 937, "slope": 24.0, "aspect": 78.9, "terrain": 0.786, "soil": 0.98, "combined": 0.883, "series": "Whiteoak", "landform": "COVE", "drainage": "Well drained", "pmkind": "Colluvium", "pmorigin": "Arkose"}}, {"type": "Feature", "geometry": {"type": "Point", "coordinates": [-83.04213523864746, 35.62346567204094]}, "properties": {"lat": 35.62346567204094, "lon": -83.04213523864746, "elev": 992, "slope": 21.9, "aspect": 60.5, "terrain": 0.784, "soil": 0.98, "combined": 0.882, "series": "Whiteoak", "landform": "COVE", "drainage": "Well drained", "pmkind": "Colluvium", "pmorigin": "Arkose"}}, {"type": "Feature", "geometry": {"type": "Point", "coordinates": [-83.01569938659668, 35.61648851473731]}, "properties": {"lat": 35.61648851473731, "lon": -83.01569938659668, "elev": 758, "slope": 26.8, "aspect": 31.0, "terrain": 0.778, "soil": 0.98, "combined": 0.879, "series": "Whiteoak", "landform": "COVE", "drainage": "Well drained", "pmkind": "Colluvium", "pmorigin": "Arkose"}}, {"type": "Feature", "geometry": {"type": "Point", "coordinates": [-83.01913261413574, 35.6142556958393]}, "properties": {"lat": 35.6142556958393, "lon": -83.01913261413574, "elev": 860, "slope": 20.4, "aspect": 40.2, "terrain": 0.777, "soil": 0.98, "combined": 0.879, "series": "Whiteoak", "landform": "COVE", "drainage": "Well drained", "pmkind": "Colluvium", "pmorigin": "Arkose"}}, {"type": "Feature", "geometry": {"type": "Point", "coordinates": [-83.02393913269043, 35.61369748137571]}, "properties": {"lat": 35.61369748137571, "lon": -83.02393913269043, "elev": 844, "slope": 25.6, "aspect": 84.3, "terrain": 0.776, "soil": 0.98, "combined": 0.878, "series": "Whiteoak", "landform": "COVE", "drainage": "Well drained", "pmkind": "Colluvium", "pmorigin": "Arkose"}}, {"type": "Feature", "geometry": {"type": "Point", "coordinates": [-83.03080558776855, 35.61006899240877]}, "properties": {"lat": 35.61006899240877, "lon": -83.03080558776855, "elev": 856, "slope": 27.0, "aspect": 53.2, "terrain": 0.776, "soil": 0.98, "combined": 0.878, "series": "Whiteoak", "landform": "COVE", "drainage": "Well drained", "pmkind": "Colluvium", "pmorigin": "Arkose"}}, {"type": "Feature", "geometry": {"type": "Point", "coordinates": [-83.04591178894043, 35.61620941578378]}, "properties": {"lat": 35.61620941578378, "lon": -83.04591178894043, "elev": 1077, "slope": 25.0, "aspect": 94.7, "terrain": 0.774, "soil": 0.98, "combined": 0.877, "series": "Whiteoak", "landform": "COVE", "drainage": "Well drained", "pmkind": "Colluvium", "pmorigin": "Arkose"}}, {"type": "Feature", "geometry": {"type": "Point", "coordinates": [-83.04350852966309, 35.62011671250473]}, "properties": {"lat": 35.62011671250473, "lon": -83.04350852966309, "elev": 1129, "slope": 26.7, "aspect": 72.2, "terrain": 0.771, "soil": 0.98, "combined": 0.876, "series": "Whiteoak", "landform": "COVE", "drainage": "Well drained", "pmkind": "Colluvium", "pmorigin": "Arkose"}}]}