{"type": "FeatureCollection", "features": [{"type": "Feature", "geometry": {"type": "Point", "coordinates": [-83.03192138671875, 35.614395248846506]}, "properties": {"lat": 35.614395248846506, "lon": -83.03192138671875, "elev": 870, "slope": 25.3, "aspect": 50.4, "terrain": 0.803, "soil": 1.0, "combined": 0.902, "series": "Whiteoak", "landform": "COVE", "drainage": "Well drained", "land": "not National Forest"}}, {"type": "Feature", "geometry": {"type": "Point", "coordinates": [-83.03011894226074, 35.61397658909445]}, "properties": {"lat": 35.61397658909445, "lon": -83.03011894226074, "elev": 856, "slope": 25.1, "aspect": 31.4, "terrain": 0.804, "soil": 1.0, "combined": 0.902, "series": "Whiteoak", "landform": "COVE", "drainage": "Well drained", "land": "not National Forest"}}, {"type": "Feature", "geometry": {"type": "Point", "coordinates": [-83.0306339263916, 35.60999921216182]}, "properties": {"lat": 35.60999921216182, "lon": -83.0306339263916, "elev": 853, "slope": 24.5, "aspect": 37.6, "terrain": 0.804, "soil": 1.0, "combined": 0.902, "series": "Whiteoak", "landform": "COVE", "drainage": "Well drained", "land": "not National Forest"}}, {"type": "Feature", "geometry": {"type": "Point", "coordinates": [-83.03449630737305, 35.61481390640728]}, "properties": {"lat": 35.61481390640728, "lon": -83.03449630737305, "elev": 900, "slope": 24.9, "aspect": 65.9, "terrain": 0.801, "soil": 1.0, "combined": 0.901, "series": "Whiteoak", "landform": "COVE", "drainage": "Well drained", "land": "not National Forest"}}, {"type": "Feature", "geometry": {"type": "Point", "coordinates": [-83.07003021240234, 35.598065894883625]}, "properties": {"lat": 35.598065894883625, "lon": -83.07003021240234, "elev": 1251, "slope": 24.1, "aspect": 45.7, "terrain": 0.802, "soil": 1.0, "combined": 0.901, "series": "Whiteoak", "landform": "COVE", "drainage": "Well drained", "land": "not National Forest"}}, {"type": "Feature", "geometry": {"type": "Point", "coordinates": [-83.06719779968262, 35.593668960979095]}, "properties": {"lat": 35.593668960979095, "lon": -83.06719779968262, "elev": 1207, "slope": 25.0, "aspect": 15.9, "terrain": 0.796, "soil": 1.0, "combined": 0.898, "series": "Cullasaja", "landform": "COVE", "drainage": "Well drained", "land": "not National Forest"}}, {"type": "Feature", "geometry": {"type": "Point", "coordinates": [-83.03604125976562, 35.614395248846506]}, "properties": {"lat": 35.614395248846506, "lon": -83.03604125976562, "elev": 943, "slope": 22.5, "aspect": 57.7, "terrain": 0.79, "soil": 1.0, "combined": 0.895, "series": "Whiteoak", "landform": "COVE", "drainage": "Well drained", "land": "not National Forest"}}, {"type": "Feature", "geometry": {"type": "Point", "coordinates": [-83.04325103759766, 35.60958052940196]}, "properties": {"lat": 35.60958052940196, "lon": -83.04325103759766, "elev": 901, "slope": 22.3, "aspect": 52.8, "terrain": 0.789, "soil": 1.0, "combined": 0.895, "series": "Whiteoak", "landform": "COVE", "drainage": "Well drained", "land": "not National Forest"}}, {"type": "Feature", "geometry": {"type": "Point", "coordinates": [-83.06565284729004, 35.595344011899265]}, "properties": {"lat": 35.595344011899265, "lon": -83.06565284729004, "elev": 1163, "slope": 22.8, "aspect": 29.4, "terrain": 0.79, "soil": 1.0, "combined": 0.895, "series": "Cullasaja", "landform": "COVE", "drainage": "Well drained", "land": "not National Forest"}}, {"type": "Feature", "geometry": {"type": "Point", "coordinates": [-83.06436538696289, 35.594087726995284]}, "properties": {"lat": 35.594087726995284, "lon": -83.06436538696289, "elev": 1195, "slope": 22.0, "aspect": 51.7, "terrain": 0.788, "soil": 1.0, "combined": 0.894, "series": "Cullasaja", "landform": "COVE", "drainage": "Well drained", "land": "not National Forest"}}, {"type": "Feature", "geometry": {"type": "Point", "coordinates": [-83.03681373596191, 35.61565121495493]}, "properties": {"lat": 35.61565121495493, "lon": -83.03681373596191, "elev": 947, "slope": 21.1, "aspect": 48.0, "terrain": 0.782, "soil": 1.0, "combined": 0.891, "series": "Whiteoak", "landform": "COVE", "drainage": "Well drained"}}, {"type": "Feature", "geometry": {"type": "Point", "coordinates": [-83.06822776794434, 35.59241264978613]}, "properties": {"lat": 35.59241264978613, "lon": -83.06822776794434, "elev": 1250, "slope": 24.2, "aspect": 6.0, "terrain": 0.782, "soil": 1.0, "combined": 0.891, "series": "Cullasaja", "landform": "COVE", "drainage": "Well drained"}}, {"type": "Feature", "geometry": {"type": "Point", "coordinates": [-83.03938865661621, 35.61020855272006]}, "properties": {"lat": 35.61020855272006, "lon": -83.03938865661621, "elev": 879, "slope": 24.9, "aspect": 89.0, "terrain": 0.78, "soil": 1.0, "combined": 0.89, "series": "Whiteoak", "landform": "COVE", "drainage": "Well drained"}}, {"type": "Feature", "geometry": {"type": "Point", "coordinates": [-83.04556846618652, 35.61586054072227]}, "properties": {"lat": 35.61586054072227, "lon": -83.04556846618652, "elev": 1064, "slope": 23.0, "aspect": 84.9, "terrain": 0.774, "soil": 1.0, "combined": 0.887, "series": "Whiteoak", "landform": "COVE", "drainage": "Well drained"}}, {"type": "Feature", "geometry": {"type": "Point", "coordinates": [-83.04093360900879, 35.60853381291601]}, "properties": {"lat": 35.60853381291601, "lon": -83.04093360900879, "elev": 869, "slope": 21.3, "aspect": 49.6, "terrain": 0.771, "soil": 1.0, "combined": 0.886, "series": "Whiteoak", "landform": "COVE", "drainage": "Well drained"}}, {"type": "Feature", "geometry": {"type": "Point", "coordinates": [-83.056640625, 35.59115631887676]}, "properties": {"lat": 35.59115631887676, "lon": -83.056640625, "elev": 1283, "slope": 24.7, "aspect": 45.8, "terrain": 0.806, "soil": 0.955, "combined": 0.881, "series": "Heintooga", "landform": "COVE", "drainage": "Well drained"}}, {"type": "Feature", "geometry": {"type": "Point", "coordinates": [-83.03887367248535, 35.60790577645104]}, "properties": {"lat": 35.60790577645104, "lon": -83.03887367248535, "elev": 842, "slope": 17.3, "aspect": 45.4, "terrain": 0.757, "soil": 1.0, "combined": 0.879, "series": "Whiteoak", "landform": "COVE", "drainage": "Well drained"}}, {"type": "Feature", "geometry": {"type": "Point", "coordinates": [-83.0427360534668, 35.61125524729435]}, "properties": {"lat": 35.61125524729435, "lon": -83.0427360534668, "elev": 905, "slope": 20.9, "aspect": 92.4, "terrain": 0.754, "soil": 1.0, "combined": 0.877, "series": "Whiteoak", "landform": "COVE", "drainage": "Well drained"}}, {"type": "Feature", "geometry": {"type": "Point", "coordinates": [-83.06539535522461, 35.59262203635416]}, "properties": {"lat": 35.59262203635416, "lon": -83.06539535522461, "elev": 1252, "slope": 22.9, "aspect": 348.7, "terrain": 0.754, "soil": 1.0, "combined": 0.877, "series": "Cullasaja", "landform": "COVE", "drainage": "Well drained"}}, {"type": "Feature", "geometry": {"type": "Point", "coordinates": [-83.06977272033691, 35.59136570873084]}, "properties": {"lat": 35.59136570873084, "lon": -83.06977272033691, "elev": 1295, "slope": 24.4, "aspect": 23.9, "terrain": 0.798, "soil": 0.955, "combined": 0.876, "series": "Heintooga", "landform": "COVE", "drainage": "Well drained"}}]}